IRIDIUM 113             
1 42803U 17039A   26137.82128704  .00000040  00000+0  72122-5 0  9990
2 42803  86.3965 334.8777 0002287  92.3129 267.8329 14.34217806466830
IRIDIUM 123             
1 42804U 17039B   26137.86276567  .00000045  00000+0  89922-5 0  9997
2 42804  86.3991   6.3139 0002310  83.2365 276.9093 14.34217916465606
IRIDIUM 120             
1 42805U 17039C   26137.81495242 -.00000006  00000+0 -90360-5 0  9993
2 42805  86.3951 334.6667 0002030  86.3166 273.8262 14.34214606466820
IRIDIUM 115             
1 42806U 17039D   26137.82099603  .00000171  00000+0  44712-4 0  9996
2 42806  86.4490 334.7889 0002338  82.6195 277.5271 14.43281394469887
IRIDIUM 118             
1 42807U 17039E   26137.61540466  .00000053  00000+0  11748-4 0  9994
2 42807  86.3992   6.4154 0002247  86.4378 273.7075 14.34216849465560
IRIDIUM 117             
1 42808U 17039F   26137.63443256  .00000034  00000+0  50718-5 0  9996
2 42808  86.3990   6.3654 0002286  84.1408 276.0049 14.34217781465591
IRIDIUM 126             
1 42809U 17039G   26137.86910531  .00000181  00000+0  57665-4 0  9997
2 42809  86.3992   6.3181 0002309  87.3144 272.8316 14.34219542465607
IRIDIUM 124             
1 42810U 17039H   26137.75481387  .00000010  00000+0 -29608-5 0  9998
2 42810  86.4456 303.0906 0002223  90.3736 269.7719 14.43279538470725
IRIDIUM 128             
1 42811U 17039J   26137.72030924  .00000082  00000+0  22170-4 0  9997
2 42811  86.3990  37.8842 0002178  78.9789 281.1652 14.34218095465615
IRIDIUM 121             
1 42812U 17039K   26137.88814303  .00000184  00000+0  58587-4 0  9990
2 42812  86.3991   6.3376 0002126  85.1642 274.9796 14.34216534465481
HELLAS-SAT 3            
1 42814U 17040A   26137.81294823  .00000158  00000+0  00000+0 0  9999
2 42814   0.0693  69.3159 0005347 328.1852 169.6677  1.00269738 32508
GSAT-17                 
1 42815U 17040B   26137.86082280 -.00000252  00000+0  00000+0 0  9993
2 42815   0.0660  95.0603 0003034 217.5018 326.4059  1.00271532 32488
INTELSAT 35E (IS-35E)   
1 42818U 17041A   26137.80565675 -.00000232  00000+0  00000+0 0  9993
2 42818   0.0118 352.2333 0001793  65.0037  73.8161  1.00270446 32518
KANOPUS-V-IK            
1 42825U 17042A   26137.86949360  .00001425  00000+0  63851-4 0  9997
2 42825  97.3601  44.0079 0001962  86.1298 274.0163 15.22830340490751
NORSAT 1                
1 42826U 17042B   26137.73572958  .00004587  00000+0  25846-3 0  9992
2 42826  97.4423 306.1450 0007307 177.1059 183.0216 15.13673072482627
NORSAT 2                
1 42828U 17042D   26137.44791165  .00007669  00000+0  34572-3 0  9995
2 42828  97.4020 311.3949 0010504 153.3961 206.7816 15.21260737483061
TECHNOSAT               
1 42829U 17042E   26137.86172255  .00002542  00000+0  18399-3 0  9999
2 42829  97.4247 296.6842 0017492 193.7776 166.2976 15.04751567482147
FLYING LAPTOP           
1 42831U 17042G   26137.85405269  .00002687  00000+0  21477-3 0  9996
2 42831  97.4548 294.5837 0017805 224.6841 135.2950 15.00931914481903
WNISAT 1R               
1 42835U 17042L   26137.70696311  .00001583  00000+0  12642-3 0  9992
2 42835  97.4802 294.9266 0009858 266.9841  93.0255 15.01610489481932
LEMUR-2-GREENBERG       
1 42837U 17042N   26137.75670000  .00010255  00000+0  35172-3 0  9995
2 42837  97.3805 318.5480 0010434 112.3439 247.8909 15.30310105483735
LEMUR-2-ANDIS           
1 42838U 17042P   26137.46132904  .00014220  00000+0  44013-3 0  9990
2 42838  97.3669 318.3387 0010118 114.9208 245.3088 15.33530669483743
LEMUR-2-MONSON          
1 42839U 17042Q   26137.76615850  .00009091  00000+0  34435-3 0  9997
2 42839  97.4064 318.5739 0008168 102.6246 257.5907 15.27103076483527
LEMUR-2-FURIAUS         
1 42840U 17042R   26137.72832417  .00010481  00000+0  37248-3 0  9995
2 42840  97.3759 316.5453 0008186 163.4628 196.6881 15.29162852483555
LEMUR-2-PETERG          
1 42841U 17042S   26137.75234313  .00013525  00000+0  43223-3 0  9992
2 42841  97.3983 322.7672 0005233  93.9432 266.2409 15.32558175483772
LEMUR-2-DEMBITZ         
1 42842U 17042T   26137.75004492  .00010140  00000+0  35896-3 0  9993
2 42842  97.3815 319.5641 0008120 122.5831 237.6194 15.29299710483694
NANOACE                 
1 42844U 17042V   26137.76609302  .00008004  00000+0  33510-3 0  9994
2 42844  97.3723 312.5502 0005608 118.2789 241.9015 15.23803278483442
LEMUR-2-ZACHARY         
1 42845U 17042W   26137.50207533  .00027202  00000+0  52944-3 0  9990
2 42845  97.3614 328.5484 0004664 127.0925 233.0752 15.47536660484455
CORVUS BC2              
1 42846U 17042X   26137.43551051  .00001808  00000+0  12769-3 0  9995
2 42846  97.4038 299.9917 0012218 210.3708 149.6813 15.06082946482432
CORVUS BC1              
1 42847U 17042Y   26137.69934159  .00001636  00000+0  11542-3 0  9995
2 42847  97.4069 301.0392 0011784 184.6233 175.4888 15.06254569482501
COSMOS 2520             
1 42907U 17046A   26137.82143014  .00000143  00000+0  00000+0 0  9998
2 42907   0.0159 102.8651 0000606 334.2549 139.1102  1.00270718 32091
TDRS 13                 
1 42915U 17047A   26137.81025008 -.00000096  00000+0  00000+0 0  9997
2 42915   3.4451   1.9791 0013703 101.7260  52.0323  1.00271318 32045
QZS-3 (MICHIBIKI-3)     
1 42917U 17048A   26137.76639656 -.00000342  00000+0  00000+0 0  9998
2 42917   0.0741 127.3040 0001814 283.9192 227.2032  1.00270453 31950
FORMOSAT-5              
1 42920U 17049A   26137.77783801  .00000101  00000+0  36745-4 0  9998
2 42920  98.2255 213.7623 0011661 170.2762 189.8660 14.50885655462269
ORS-5 SENSORSAT         
1 42921U 17050A   26133.40078523  .00001949  00000+0  85445-4 0  9997
2 42921   0.0490  43.3906 0010519 265.4714  51.0443 15.00774767475819
AMAZONAS 5              
1 42934U 17053A   26137.30129360 -.00000275  00000+0  00000+0 0  9994
2 42934   0.0362 314.4693 0003493  54.6955 273.3239  1.00271278 31739
COSMOS 2522 [GLONASS-M] 
1 42939U 17055A   26137.15191590  .00000079  00000+0  00000+0 0  9999
2 42939  64.0767 192.9407 0010166 238.3207 121.6702  2.13101783 67312
ASIASAT 9               
1 42942U 17057A   26137.90793938 -.00000354  00000+0  00000+0 0  9999
2 42942   0.0091 340.3008 0002410  73.2386 271.0302  1.00272049 31551
YAOGAN-30 02A           
1 42945U 17058A   26137.58170765  .00001682  00000+0  12480-3 0  9997
2 42945  34.9967 215.8979 0002584 246.5059 113.5378 15.02947872471280
YAOGAN-30 02B           
1 42946U 17058B   26137.63939749  .00001517  00000+0  11363-3 0  9995
2 42946  34.9968 216.3471 0001729  35.8896 324.1928 15.02663739471269
YAOGAN-30 02C           
1 42947U 17058C   26137.87347266  .00001874  00000+0  13376-3 0  9991
2 42947  34.9971 205.9452 0005563 298.9519  61.0632 15.04339468471250
INTELSAT 37E (IS-37E)   
1 42950U 17059A   26137.80895008 -.00000135  00000+0  00000+0 0  9997
2 42950   0.0150 329.4721 0002095  92.2417  87.0125  1.00270104 31762
BSAT-4A                 
1 42951U 17059B   26137.76297610 -.00000344  00000+0  00000+0 0  9990
2 42951   0.0421  11.3932 0004233  45.4394 203.1254  1.00268512 31499
VRSS-2                  
1 42954U 17060A   26137.85451249  .00000239  00000+0  37119-4 0  9993
2 42954  97.6534 176.9447 0016512 194.0270 166.0487 14.81138341463960
IRIDIUM 133             
1 42955U 17061A   26137.68225368  .00000185  00000+0  58873-4 0  9997
2 42955  86.3993  38.0172 0002271  83.9282 276.2173 14.34218439450400
IRIDIUM 100             
1 42956U 17061B   26137.67591097  .00000071  00000+0  18178-4 0  9990
2 42956  86.3991  37.9391 0002225  83.6220 276.5229 14.34218045450406
IRIDIUM 122             
1 42957U 17061C   26137.64419811  .00000135  00000+0  41051-4 0  9998
2 42957  86.3991  37.9526 0002326  84.8427 275.3035 14.34218373450407
IRIDIUM 129             
1 42958U 17061D   26137.46026300  .00000056  00000+0  13074-4 0  9992
2 42958  86.3992  38.0960 0002217  91.6391 268.5059 14.34217757450391
IRIDIUM 119             
1 42959U 17061E   26137.63785566  .00000076  00000+0  20102-4 0  9990
2 42959  86.3993  38.0175 0002332  86.1924 273.9539 14.34218073450430
IRIDIUM 107             
1 42960U 17061F   26137.65688350  .00000025  00000+0  17907-5 0  9991
2 42960  86.3990  38.0306 0002292  79.5444 280.6010 14.34217764450449
IRIDIUM 132             
1 42961U 17061G   26137.45390849  .00000182  00000+0  58050-4 0  9990
2 42961  86.3993  38.0951 0002302  85.9318 274.2141 14.34215077450418
IRIDIUM 136             
1 42962U 17061H   26137.69493741  .00000122  00000+0  36655-4 0  9993
2 42962  86.3992  38.0010 0002322  84.6433 275.5027 14.34217683450467
IRIDIUM 139             
1 42963U 17061J   26137.70128124 -.00000015  00000+0 -12302-4 0  9992
2 42963  86.3992  38.0597 0002094  80.5317 279.6115 14.34217473450471
IRIDIUM 125             
1 42964U 17061K   26137.47928947  .00000056  00000+0  13055-4 0  9997
2 42964  86.3995  38.2131 0002745  86.6148 273.5362 14.34217092450455
QZS-4 (MICHIBIKI-4)     
1 42965U 17062A   26137.87607197 -.00000321  00000+0  00000+0 0  9991
2 42965  40.1258 343.8687 0745927 271.2428  74.9650  1.00259163 31492
SES-11 (ECHOSTAR 105)   
1 42967U 17063A   26137.62984991 -.00000083  00000+0  00000+0 0  9992
2 42967   0.0569  78.1431 0002506 350.9374 288.0393  1.00270933 31415
SENTINEL-5P             
1 42969U 17064A   26137.82235443  .00000014  00000+0  27882-4 0  9993
2 42969  98.7916  80.1722 0001139  77.8659 282.2644 14.19513259445256
KOREASAT 5A             
1 42984U 17067A   26137.76358278 -.00000352  00000+0  00000+0 0  9992
2 42984   0.0126 355.2457 0000694  59.0656 209.1940  1.00271622 31223
COSMOS 2523             
1 42986U 17037E   26137.82194031  .00000532  00000+0  51366-4 0  9998
2 42986  97.4993 152.2195 0066446 333.1838  26.5954 14.95328537464420
SKYSAT-C11              
1 42987U 17068A   26137.85208507  .00018169  00000+0  26014-3 0  9996
2 42987  97.4322 285.4080 0001690 115.4716 244.6713 15.56250040478528
